[{"OBJECT_NAME":"QIANFAN-35","OBJECT_ID":"2024-185S","EPOCH":"2026-03-05T19:13:41.539008","MEAN_MOTION":14.28119502,"ECCENTRICITY":0.0007461,"INCLINATION":88.9745,"RA_OF_ASC_NODE":67.1099,"ARG_OF_PERICENTER":31.7198,"MEAN_ANOMALY":328.4445,"EPHEMERIS_TYPE":0,"CLASSIFICATION_TYPE":"U","NORAD_CAT_ID":61568,"ELEMENT_SET_NO":999,"REV_AT_EPOCH":8203,"BSTAR":0.00047456,"MEAN_MOTION_DOT":1.194e-5,"MEAN_MOTION_DDOT":0},{"OBJECT_NAME":"QIANFAN-36","OBJECT_ID":"2024-185T","EPOCH":"2026-03-05T18:43:28.303680","MEAN_MOTION":13.55613754,"ECCENTRICITY":0.0007016,"INCLINATION":88.9717,"RA_OF_ASC_NODE":72.3778,"ARG_OF_PERICENTER":145.9172,"MEAN_ANOMALY":214.2433,"EPHEMERIS_TYPE":0,"CLASSIFICATION_TYPE":"U","NORAD_CAT_ID":61569,"ELEMENT_SET_NO":999,"REV_AT_EPOCH":7917,"BSTAR":0.00015814,"MEAN_MOTION_DOT":1.22e-6,"MEAN_MOTION_DDOT":0},{"OBJECT_NAME":"QIANFAN-37","OBJECT_ID":"2024-232B","EPOCH":"2026-03-05T19:06:10.662336","MEAN_MOTION":13.51005355,"ECCENTRICITY":0.0001722,"INCLINATION":89.0052,"RA_OF_ASC_NODE":32.9399,"ARG_OF_PERICENTER":97.0552,"MEAN_ANOMALY":263.0795,"EPHEMERIS_TYPE":0,"CLASSIFICATION_TYPE":"U","NORAD_CAT_ID":62238,"ELEMENT_SET_NO":999,"REV_AT_EPOCH":11038,"BSTAR":0.00012109,"MEAN_MOTION_DOT":9.0e-7,"MEAN_MOTION_DDOT":0},{"OBJECT_NAME":"QIANFAN-38","OBJECT_ID":"2024-232C","EPOCH":"2026-03-05T17:55:00.249024","MEAN_MOTION":13.51003917,"ECCENTRICITY":0.0013411,"INCLINATION":89.0059,"RA_OF_ASC_NODE":32.8663,"ARG_OF_PERICENTER":322.9544,"MEAN_ANOMALY":37.068,"EPHEMERIS_TYPE":0,"CLASSIFICATION_TYPE":"U","NORAD_CAT_ID":62239,"ELEMENT_SET_NO":999,"REV_AT_EPOCH":11043,"BSTAR":0.00011824,"MEAN_MOTION_DOT":8.8e-7,"MEAN_MOTION_DDOT":0},{"OBJECT_NAME":"QIANFAN-39","OBJECT_ID":"2024-232D","EPOCH":"2026-03-05T19:42:15.837696","MEAN_MOTION":14.25436799,"ECCENTRICITY":0.0016596,"INCLINATION":89.0057,"RA_OF_ASC_NODE":27.8047,"ARG_OF_PERICENTER":158.3539,"MEAN_ANOMALY":201.8359,"EPHEMERIS_TYPE":0,"CLASSIFICATION_TYPE":"U","NORAD_CAT_ID":62240,"ELEMENT_SET_NO":999,"REV_AT_EPOCH":11322,"BSTAR":0.0002243,"MEAN_MOTION_DOT":5.44e-6,"MEAN_MOTION_DDOT":0},{"OBJECT_NAME":"QIANFAN-40","OBJECT_ID":"2024-232E","EPOCH":"2026-03-05T20:29:03.194016","MEAN_MOTION":13.5100314,"ECCENTRICITY":0.0012712,"INCLINATION":89.0087,"RA_OF_ASC_NODE":32.4633,"ARG_OF_PERICENTER":331.7667,"MEAN_ANOMALY":28.2793,"EPHEMERIS_TYPE":0,"CLASSIFICATION_TYPE":"U","NORAD_CAT_ID":62241,"ELEMENT_SET_NO":999,"REV_AT_EPOCH":11081,"BSTAR":0.00012069,"MEAN_MOTION_DOT":9.0e-7,"MEAN_MOTION_DDOT":0},{"OBJECT_NAME":"QIANFAN-41","OBJECT_ID":"2024-232F","EPOCH":"2026-03-05T20:40:57.813600","MEAN_MOTION":13.51004825,"ECCENTRICITY":0.0012698,"INCLINATION":89.0057,"RA_OF_ASC_NODE":32.8048,"ARG_OF_PERICENTER":318.6726,"MEAN_ANOMALY":41.3463,"EPHEMERIS_TYPE":0,"CLASSIFICATION_TYPE":"U","NORAD_CAT_ID":62242,"ELEMENT_SET_NO":999,"REV_AT_EPOCH":11047,"BSTAR":0.00012992,"MEAN_MOTION_DOT":9.6e-7,"MEAN_MOTION_DDOT":0},{"OBJECT_NAME":"QIANFAN-42","OBJECT_ID":"2024-232G","EPOCH":"2026-03-05T19:14:22.118496","MEAN_MOTION":14.24530624,"ECCENTRICITY":0.0015208,"INCLINATION":89.0056,"RA_OF_ASC_NODE":27.8665,"ARG_OF_PERICENTER":163.8282,"MEAN_ANOMALY":196.34,"EPHEMERIS_TYPE":0,"CLASSIFICATION_TYPE":"U","NORAD_CAT_ID":62243,"ELEMENT_SET_NO":999,"REV_AT_EPOCH":11319,"BSTAR":0.00021305,"MEAN_MOTION_DOT":5.09e-6,"MEAN_MOTION_DDOT":0},{"OBJECT_NAME":"QIANFAN-43","OBJECT_ID":"2024-232H","EPOCH":"2026-03-05T20:34:58.685952","MEAN_MOTION":13.51004832,"ECCENTRICITY":0.0014374,"INCLINATION":89.0062,"RA_OF_ASC_NODE":32.8742,"ARG_OF_PERICENTER":323.5284,"MEAN_ANOMALY":36.4886,"EPHEMERIS_TYPE":0,"CLASSIFICATION_TYPE":"U","NORAD_CAT_ID":62244,"ELEMENT_SET_NO":999,"REV_AT_EPOCH":7908,"BSTAR":0.00011842,"MEAN_MOTION_DOT":8.8e-7,"MEAN_MOTION_DDOT":0},{"OBJECT_NAME":"QIANFAN-44","OBJECT_ID":"2024-232J","EPOCH":"2026-03-05T18:30:33.958368","MEAN_MOTION":13.51002749,"ECCENTRICITY":0.0012516,"INCLINATION":89.006,"RA_OF_ASC_NODE":32.6923,"ARG_OF_PERICENTER":321.5743,"MEAN_ANOMALY":38.4516,"EPHEMERIS_TYPE":0,"CLASSIFICATION_TYPE":"U","NORAD_CAT_ID":62245,"ELEMENT_SET_NO":999,"REV_AT_EPOCH":11054,"BSTAR":0.00010337,"MEAN_MOTION_DOT":7.9e-7,"MEAN_MOTION_DDOT":0},{"OBJECT_NAME":"QIANFAN-45","OBJECT_ID":"2024-232K","EPOCH":"2026-03-05T19:29:51.442080","MEAN_MOTION":13.51000437,"ECCENTRICITY":0.0013159,"INCLINATION":89.0064,"RA_OF_ASC_NODE":32.8376,"ARG_OF_PERICENTER":320.6374,"MEAN_ANOMALY":39.382,"EPHEMERIS_TYPE":0,"CLASSIFICATION_TYPE":"U","NORAD_CAT_ID":62246,"ELEMENT_SET_NO":999,"REV_AT_EPOCH":11047,"BSTAR":9.4724e-5,"MEAN_MOTION_DOT":7.3e-7,"MEAN_MOTION_DDOT":0},{"OBJECT_NAME":"QIANFAN-46","OBJECT_ID":"2024-232L","EPOCH":"2026-03-05T20:05:20.749344","MEAN_MOTION":13.51003443,"ECCENTRICITY":0.0013393,"INCLINATION":89.0059,"RA_OF_ASC_NODE":32.9007,"ARG_OF_PERICENTER":326.5176,"MEAN_ANOMALY":33.5128,"EPHEMERIS_TYPE":0,"CLASSIFICATION_TYPE":"U","NORAD_CAT_ID":62247,"ELEMENT_SET_NO":999,"REV_AT_EPOCH":11043,"BSTAR":0.00012709,"MEAN_MOTION_DOT":9.4e-7,"MEAN_MOTION_DDOT":0},{"OBJECT_NAME":"QIANFAN-47","OBJECT_ID":"2024-232M","EPOCH":"2026-03-05T20:11:16.003680","MEAN_MOTION":13.51003281,"ECCENTRICITY":0.0013786,"INCLINATION":89.0055,"RA_OF_ASC_NODE":32.83,"ARG_OF_PERICENTER":325.3327,"MEAN_ANOMALY":34.6924,"EPHEMERIS_TYPE":0,"CLASSIFICATION_TYPE":"U","NORAD_CAT_ID":62248,"ELEMENT_SET_NO":999,"REV_AT_EPOCH":11046,"BSTAR":9.9396e-5,"MEAN_MOTION_DOT":7.6e-7,"MEAN_MOTION_DDOT":0},{"OBJECT_NAME":"QIANFAN-48","OBJECT_ID":"2024-232N","EPOCH":"2026-03-05T19:17:57.166368","MEAN_MOTION":13.5100345,"ECCENTRICITY":0.0016116,"INCLINATION":89.0059,"RA_OF_ASC_NODE":32.8388,"ARG_OF_PERICENTER":327.1973,"MEAN_ANOMALY":32.8177,"EPHEMERIS_TYPE":0,"CLASSIFICATION_TYPE":"U","NORAD_CAT_ID":62249,"ELEMENT_SET_NO":999,"REV_AT_EPOCH":11046,"BSTAR":0.00010673,"MEAN_MOTION_DOT":8.1e-7,"MEAN_MOTION_DDOT":0},{"OBJECT_NAME":"QIANFAN-49","OBJECT_ID":"2024-232P","EPOCH":"2026-03-05T19:00:11.037024","MEAN_MOTION":13.51002538,"ECCENTRICITY":0.0013034,"INCLINATION":89.0058,"RA_OF_ASC_NODE":32.8519,"ARG_OF_PERICENTER":322.8435,"MEAN_ANOMALY":37.1813,"EPHEMERIS_TYPE":0,"CLASSIFICATION_TYPE":"U","NORAD_CAT_ID":62250,"ELEMENT_SET_NO":999,"REV_AT_EPOCH":7905,"BSTAR":9.5015e-5,"MEAN_MOTION_DOT":7.3e-7,"MEAN_MOTION_DDOT":0},{"OBJECT_NAME":"QIANFAN-50","OBJECT_ID":"2024-232Q","EPOCH":"2026-03-05T19:35:42.962208","MEAN_MOTION":13.51003532,"ECCENTRICITY":0.0014722,"INCLINATION":89.0064,"RA_OF_ASC_NODE":32.8621,"ARG_OF_PERICENTER":323.3972,"MEAN_ANOMALY":36.6172,"EPHEMERIS_TYPE":0,"CLASSIFICATION_TYPE":"U","NORAD_CAT_ID":62251,"ELEMENT_SET_NO":999,"REV_AT_EPOCH":7908,"BSTAR":0.00011751,"MEAN_MOTION_DOT":8.8e-7,"MEAN_MOTION_DDOT":0},{"OBJECT_NAME":"QIANFAN-51","OBJECT_ID":"2024-232R","EPOCH":"2026-03-05T19:12:03.720384","MEAN_MOTION":13.51004306,"ECCENTRICITY":0.0012359,"INCLINATION":89.0058,"RA_OF_ASC_NODE":32.8525,"ARG_OF_PERICENTER":328.7762,"MEAN_ANOMALY":31.2653,"EPHEMERIS_TYPE":0,"CLASSIFICATION_TYPE":"U","NORAD_CAT_ID":62252,"ELEMENT_SET_NO":999,"REV_AT_EPOCH":7907,"BSTAR":9.9059e-5,"MEAN_MOTION_DOT":7.6e-7,"MEAN_MOTION_DDOT":0}]
