QIANFAN-35              
1 61568U 24185S   26064.80117522  .00001194  00000+0  47456-3 0  9993
2 61568  88.9745  67.1099 0007461  31.7198 328.4445 14.28119502 82034
QIANFAN-36              
1 61569U 24185T   26064.78018870  .00000122  00000+0  15814-3 0  9990
2 61569  88.9717  72.3778 0007016 145.9172 214.2433 13.55613754 79179
QIANFAN-37              
1 62238U 24232B   26064.79595674  .00000090  00000+0  12109-3 0  9998
2 62238  89.0052  32.9399 0001722  97.0552 263.0795 13.51005355110385
QIANFAN-38              
1 62239U 24232C   26064.74653066  .00000088  00000+0  11824-3 0  9994
2 62239  89.0059  32.8663 0013411 322.9544  37.0680 13.51003917110435
QIANFAN-39              
1 62240U 24232D   26064.82101664  .00000544  00000+0  22430-3 0  9999
2 62240  89.0057  27.8047 0016596 158.3539 201.8359 14.25436799113221
QIANFAN-40              
1 62241U 24232E   26064.85350919  .00000090  00000+0  12069-3 0  9995
2 62241  89.0087  32.4633 0012712 331.7667  28.2793 13.51003140110816
QIANFAN-41              
1 62242U 24232F   26064.86178025  .00000096  00000+0  12992-3 0  9994
2 62242  89.0057  32.8048 0012698 318.6726  41.3463 13.51004825110474
QIANFAN-42              
1 62243U 24232G   26064.80164489  .00000509  00000+0  21305-3 0  9995
2 62243  89.0056  27.8665 0015208 163.8282 196.3400 14.24530624113196
QIANFAN-43              
1 62244U 24232H   26064.85762368  .00000088  00000+0  11842-3 0  9998
2 62244  89.0062  32.8742 0014374 323.5284  36.4886 13.51004832 79083
QIANFAN-44              
1 62245U 24232J   26064.77122637  .00000079  00000+0  10337-3 0  9997
2 62245  89.0060  32.6923 0012516 321.5743  38.4516 13.51002749110549
QIANFAN-45              
1 62246U 24232K   26064.81240095  .00000073  00000+0  94724-4 0  9999
2 62246  89.0064  32.8376 0013159 320.6374  39.3820 13.51000437110474
QIANFAN-46              
1 62247U 24232L   26064.83704571  .00000094  00000+0  12709-3 0  9991
2 62247  89.0059  32.9007 0013393 326.5176  33.5128 13.51003443110439
QIANFAN-47              
1 62248U 24232M   26064.84115745  .00000076  00000+0  99396-4 0  9990
2 62248  89.0055  32.8300 0013786 325.3327  34.6924 13.51003281110461
QIANFAN-48              
1 62249U 24232N   26064.80413387  .00000081  00000+0  10673-3 0  9996
2 62249  89.0059  32.8388 0016116 327.1973  32.8177 13.51003450110467
QIANFAN-49              
1 62250U 24232P   26064.79179441  .00000073  00000+0  95015-4 0  9991
2 62250  89.0058  32.8519 0013034 322.8435  37.1813 13.51002538 79055
QIANFAN-50              
1 62251U 24232Q   26064.81646947  .00000088  00000+0  11751-3 0  9995
2 62251  89.0064  32.8621 0014722 323.3972  36.6172 13.51003532 79084
QIANFAN-51              
1 62252U 24232R   26064.80004306  .00000076  00000+0  99059-4 0  9997
2 62252  89.0058  32.8525 0012359 328.7762  31.2653 13.51004306 79075
